CCSDS_OEM_VERS = 1.0
CREATION_DATE  = 2017-05-11T11:52:18
ORIGINATOR     = GMAT USER

META_START
OBJECT_NAME          = MOPSSat_alt_35785_km_RAAN_270_033
OBJECT_ID            = SatId
CENTER_NAME          = Earth
REF_FRAME            = EME2000
TIME_SYSTEM          = UTC
START_TIME           = 2017-01-01T00:00:00.000
USEABLE_START_TIME   = 2017-01-01T00:00:00.000
USEABLE_STOP_TIME    = 2017-01-02T00:00:00.000
STOP_TIME            = 2017-01-02T00:00:00.000
INTERPOLATION        = Lagrange
INTERPOLATION_DEGREE = 7 
META_STOP


                                                                                   

2017-01-01T13:17:30.000  -1.437100901416168e+04   3.963457633449441e+04  -2.787872325015557e+00  -2.890801063747261e+00  -1.048311595583694e+00  -3.888985574337854e-04
2017-01-01T13:17:40.000  -1.439991320063372e+04   3.962408267783799e+04  -2.791760382139701e+00  -2.890035886284994e+00  -1.050419610672325e+00  -3.887128204672118e-04
2017-01-01T13:17:50.000  -1.442880972770598e+04   3.961356794379983e+04  -2.795646580850422e+00  -2.889269171395750e+00  -1.052527067178175e+00  -3.885268730941132e-04
2017-01-01T13:18:00.000  -1.445769857987562e+04   3.960303213801888e+04  -2.799530919026678e+00  -2.888500919490666e+00  -1.054633963970222e+00  -3.883407154320532e-04
2017-01-01T13:18:10.000  -1.448657974164152e+04   3.959247526614638e+04  -2.803413394548275e+00  -2.887731130981770e+00  -1.056740299917565e+00  -3.881543475987226e-04
2017-01-01T13:18:20.000  -1.451545319760782e+04   3.958189733380855e+04  -2.807294005309823e+00  -2.886959806279271e+00  -1.058846073896985e+00  -3.879677697112746e-04
2017-01-01T13:18:30.000  -1.454431893241476e+04   3.957129834663100e+04  -2.811172749211395e+00  -2.886186945793334e+00  -1.060951284787893e+00  -3.877809818867673e-04
2017-01-01T13:18:40.000  -1.457317693073876e+04   3.956067831023896e+04  -2.815049624158550e+00  -2.885412549934094e+00  -1.063055931472339e+00  -3.875939842421602e-04
2017-01-01T13:18:50.000  -1.460202717736091e+04   3.955003723023102e+04  -2.818924628071504e+00  -2.884636619109748e+00  -1.065160012840005e+00  -3.874067768938733e-04
2017-01-01T13:19:00.000  -1.463086965706403e+04   3.953937511221777e+04  -2.822797758871320e+00  -2.883859153729370e+00  -1.067263527780702e+00  -3.872193599584470e-04
2017-01-01T13:19:10.000  -1.465970435462231e+04   3.952869196182591e+04  -2.826669014478529e+00  -2.883080154203205e+00  -1.069366475183609e+00  -3.870317335526191e-04
2017-01-01T13:19:20.000  -1.468853125477214e+04   3.951798778470737e+04  -2.830538392809154e+00  -2.882299620943343e+00  -1.071468853935149e+00  -3.868438977934810e-04
2017-01-01T13:19:30.000  -1.471735034218962e+04   3.950726258654964e+04  -2.834405891771764e+00  -2.881517554364463e+00  -1.073570662917348e+00  -3.866558527986598e-04
2017-01-01T13:19:40.000  -1.474616160157515e+04   3.949651637304340e+04  -2.838271509278786e+00  -2.880733954881483e+00  -1.075671901014004e+00  -3.864675986857533e-04
2017-01-01T13:19:50.000  -1.477496501727451e+04   3.948574915002636e+04  -2.842135243195764e+00  -2.879948822920038e+00  -1.077772567083052e+00  -3.862791355748489e-04
2017-01-01T13:20:00.000  -1.480376057373818e+04   3.947496092330942e+04  -2.845997091402895e+00  -2.879162158903819e+00  -1.079872659990063e+00  -3.860904635854793e-04
2017-01-01T13:20:10.000  -1.483254825535050e+04   3.946415169874132e+04  -2.849857051772123e+00  -2.878373963259262e+00  -1.081972178595782e+00  -3.859015828377514e-04
2017-01-01T13:20:20.000  -1.486132804709189e+04   3.945332148195987e+04  -2.853715122255956e+00  -2.877584236397432e+00  -1.084071121804430e+00  -3.857124934479868e-04
2017-01-01T13:20:30.000  -1.489009993387822e+04   3.944247027863971e+04  -2.857571300798859e+00  -2.876792978732083e+00  -1.086169488515519e+00  -3.855231955330685e-04
2017-01-01T13:20:40.000  -1.491886390071066e+04   3.943159809443667e+04  -2.861425585357368e+00  -2.876000190675594e+00  -1.088267277634781e+00  -3.853336892094576e-04
2017-01-01T13:20:50.000  -1.494761993230207e+04   3.942070493512553e+04  -2.865277973849918e+00  -2.875205872649019e+00  -1.090364488046922e+00  -3.851439745956359e-04
2017-01-01T13:21:00.000  -1.497636801335471e+04   3.940979080649850e+04  -2.869128464194159e+00  -2.874410025074687e+00  -1.092461118635874e+00  -3.849540518102966e-04
2017-01-01T13:21:10.000  -1.500510812855979e+04   3.939885571436412e+04  -2.872977054306864e+00  -2.873612648376112e+00  -1.094557168284765e+00  -3.847639209723383e-04
2017-01-01T13:21:20.000  -1.503384026232219e+04   3.938789966465507e+04  -2.876823742067174e+00  -2.872813742985872e+00  -1.096652635855837e+00  -3.845735822027031e-04
2017-01-01T13:21:30.000  -1.506256439913172e+04   3.937692266328402e+04  -2.880668525366195e+00  -2.872013309335073e+00  -1.098747520217529e+00  -3.843830356219058e-04
2017-01-01T13:21:40.000  -1.509128052341670e+04   3.936592471620000e+04  -2.884511402087444e+00  -2.871211347857484e+00  -1.100841820233794e+00  -3.841922813510040e-04
2017-01-01T13:21:50.000  -1.511998862019210e+04   3.935490582914044e+04  -2.888352370193564e+00  -2.870407858971442e+00  -1.102935534811370e+00  -3.840013195073131e-04
2017-01-01T13:22:00.000  -1.514868867441135e+04   3.934386600787891e+04  -2.892191427639586e+00  -2.869602843097919e+00  -1.105028662852508e+00  -3.838101502086887e-04
2017-01-01T13:22:10.000  -1.517738067111305e+04   3.933280525816957e+04  -2.896028572392570e+00  -2.868796300656473e+00  -1.107121203265670e+00  -3.836187735725650e-04
2017-01-01T13:22:20.000  -1.520606459504831e+04   3.932172358588743e+04  -2.899863802381656e+00  -2.867988232075481e+00  -1.109213154938347e+00  -3.834271897183873e-04
2017-01-01T13:22:30.000  -1.523474043095770e+04   3.931062099692511e+04  -2.903697115535221e+00  -2.867178637784592e+00  -1.111304516757267e+00  -3.832353987658176e-04
2017-01-01T13:22:40.000  -1.526340816357089e+04   3.929949749719145e+04  -2.907528509780781e+00  -2.866367518214652e+00  -1.113395287608360e+00  -3.830434008347186e-04
2017-01-01T13:22:50.000  -1.529206777733203e+04   3.928835309272145e+04  -2.911357983008407e+00  -2.865554873805699e+00  -1.115485466356733e+00  -3.828511960470412e-04
2017-01-01T13:23:00.000  -1.532071925677005e+04   3.927718778952947e+04  -2.915185533120105e+00  -2.864740704996273e+00  -1.117575051873676e+00  -3.826587845242975e-04
2017-01-01T13:23:10.000  -1.534936258634990e+04   3.926600159366775e+04  -2.919011158009951e+00  -2.863925012227674e+00  -1.119664043025812e+00  -3.824661663885712e-04
2017-01-01T13:23:20.000  -1.537799775112976e+04   3.925479451096992e+04  -2.922834855651896e+00  -2.863107795925259e+00  -1.121752438723031e+00  -3.822733417580857e-04
2017-01-01T13:23:30.000  -1.540662473610211e+04   3.924356654730787e+04  -2.926656624011731e+00  -2.862289056517180e+00  -1.123840237870429e+00  -3.820803107516446e-04
2017-01-01T13:23:40.000  -1.543524352636390e+04   3.923231770852577e+04  -2.930476461069827e+00  -2.861468794429569e+00  -1.125927439380724e+00  -3.818870734874865e-04
2017-01-01T13:23:50.000  -1.546385410665871e+04   3.922104800061724e+04  -2.934294364759933e+00  -2.860647010099453e+00  -1.128014042140856e+00  -3.816936300863537e-04
2017-01-01T13:24:00.000  -1.549245646175469e+04   3.920975742957942e+04  -2.938110333019725e+00  -2.859823703964123e+00  -1.130100045039567e+00  -3.814999806689634e-04
2017-01-01T13:24:10.000  -1.552105057635748e+04   3.919844600144669e+04  -2.941924363779135e+00  -2.858998876463578e+00  -1.132185446961028e+00  -3.813061253565898e-04
2017-01-01T13:24:20.000  -1.554963643514441e+04   3.918711372227864e+04  -2.945736454964998e+00  -2.858172528039661e+00  -1.134270246787354e+00  -3.811120642708479e-04
2017-01-01T13:24:30.000  -1.557821402278007e+04   3.917576059815274e+04  -2.949546604503066e+00  -2.857344659135523e+00  -1.136354443399727e+00  -3.809177975335757e-04
2017-01-01T13:24:40.000  -1.560678332395049e+04   3.916438663515069e+04  -2.953354810322579e+00  -2.856515270194616e+00  -1.138438035680896e+00  -3.807233252666019e-04
2017-01-01T13:24:50.000  -1.563534432337972e+04   3.915299183935320e+04  -2.957161070358503e+00  -2.855684361660331e+00  -1.140521022516379e+00  -3.805286475916467e-04
2017-01-01T13:25:00.000  -1.566389700586276e+04   3.914157621682521e+04  -2.960965382555876e+00  -2.854851933974900e+00  -1.142603402796868e+00  -3.803337646300812e-04
2017-01-01T13:25:10.000  -1.569244135617912e+04   3.913013977365116e+04  -2.964767744858316e+00  -2.854017987581983e+00  -1.144685175411930e+00  -3.801386765035228e-04
2017-01-01T13:25:20.000  -1.572097735946814e+04   3.911868251578217e+04  -2.968568155257925e+00  -2.853182522915520e+00  -1.146766339277369e+00  -3.799433833312552e-04
2017-01-01T13:25:30.000  -1.574950500077402e+04   3.910720444922068e+04  -2.972366611734766e+00  -2.852345540413194e+00  -1.148846893302052e+00  -3.797478852333513e-04
2017-01-01T13:25:40.000  -1.577802426521781e+04   3.909570557995102e+04  -2.976163112279762e+00  -2.851507040511364e+00  -1.150926836400455e+00  -3.795521823294959e-04
2017-01-01T13:25:50.000  -1.580653513733066e+04   3.908418591420794e+04  -2.979957654805921e+00  -2.850667023664652e+00  -1.153006167444027e+00  -3.793562747435430e-04
2017-01-01T13:26:00.000  -1.583503760172068e+04   3.907264545820811e+04  -2.983750237237125e+00  -2.849825490326371e+00  -1.155084885309830e+00  -3.791601625989609e-04
2017-01-01T13:26:10.000  -1.586353164290077e+04   3.906108421821934e+04  -2.987540857485194e+00  -2.848982440953552e+00  -1.157162988867984e+00  -3.789638460200024e-04
2017-01-01T13:26:20.000  -1.589201724574452e+04   3.904950220037819e+04  -2.991329513510644e+00  -2.848137875993665e+00  -1.159240477014915e+00  -3.787673251286129e-04
2017-01-01T13:26:30.000  -1.592049439510984e+04   3.903789941084003e+04  -2.995116203272508e+00  -2.847291795895546e+00  -1.161317348645901e+00  -3.785706000469749e-04
